[{"OBJECT_NAME":"STARLINK-35639","OBJECT_ID":"2025-257C","EPOCH":"2026-03-09T22:00:42.141888","MEAN_MOTION":15.30215678,"ECCENTRICITY":0.00012157,"INCLINATION":53.1585,"RA_OF_ASC_NODE":216.3018,"ARG_OF_PERICENTER":77.4223,"MEAN_ANOMALY":282.6914,"EPHEMERIS_TYPE":0,"CLASSIFICATION_TYPE":"U","NORAD_CAT_ID":66382,"ELEMENT_SET_NO":999,"REV_AT_EPOCH":1976,"BSTAR":0.0008620011,"MEAN_MOTION_DOT":0.0002527,"MEAN_MOTION_DDOT":0},{"OBJECT_NAME":"COSMOS 1328","OBJECT_ID":"1981-117A","EPOCH":"2026-03-09T17:51:53.113536","MEAN_MOTION":15.33902077,"ECCENTRICITY":0.00108717,"INCLINATION":82.4939,"RA_OF_ASC_NODE":350.453,"ARG_OF_PERICENTER":167.9725,"MEAN_ANOMALY":192.1779,"EPHEMERIS_TYPE":0,"CLASSIFICATION_TYPE":"U","NORAD_CAT_ID":12987,"ELEMENT_SET_NO":999,"REV_AT_EPOCH":41406,"BSTAR":0.00040501644,"MEAN_MOTION_DOT":0.00013342,"MEAN_MOTION_DDOT":0}]
